{
    "bodies": [
        {
            "name": "TNO-631",
            "mass": 0,
            "semi_major_axis": 365.673828125,
            "eccentricity": 0.06162109374999999,
            "inclination": 0.2688727436543999,
            "longitude_of_ascending_node": 4.715242383828656,
            "argument_of_perihelion": 4.001694793059578,
            "mean_anomaly": 0.028716434307231635
        },
        {
            "name": "TNO-632",
            "mass": 0,
            "semi_major_axis": 366.015625,
            "eccentricity": 0.06171874999999999,
            "inclination": 0.26929884942881255,
            "longitude_of_ascending_node": 4.397148086557303,
            "argument_of_perihelion": 5.90709350711948,
            "mean_anomaly": 0.8771932499969805
        },
        {
            "name": "TNO-633",
            "mass": 0,
            "semi_major_axis": 366.357421875,
            "eccentricity": 0.06181640624999998,
            "inclination": 0.26972495520322526,
            "longitude_of_ascending_node": 2.9512266224746058,
            "argument_of_perihelion": 6.014713136536112,
            "mean_anomaly": 5.559997004049835
        },
        {
            "name": "TNO-634",
            "mass": 0,
            "semi_major_axis": 366.69921875,
            "eccentricity": 0.061914062499999985,
            "inclination": 0.2701510609776379,
            "longitude_of_ascending_node": 4.433356474901094,
            "argument_of_perihelion": 3.07640668897494,
            "mean_anomaly": 4.656492455398365
        },
        {
            "name": "TNO-635",
            "mass": 0,
            "semi_major_axis": 367.041015625,
            "eccentricity": 0.062011718749999986,
            "inclination": 0.2705771667520506,
            "longitude_of_ascending_node": 2.1721542790513935,
            "argument_of_perihelion": 2.946830544613226,
            "mean_anomaly": 5.363877042539847
        },
        {
            "name": "TNO-636",
            "mass": 0,
            "semi_major_axis": 367.3828125,
            "eccentricity": 0.06210937499999999,
            "inclination": 0.2710032725264633,
            "longitude_of_ascending_node": 1.265573733817746,
            "argument_of_perihelion": 4.115026645708054,
            "mean_anomaly": 3.1779146417445268
        },
        {
            "name": "TNO-637",
            "mass": 0,
            "semi_major_axis": 367.724609375,
            "eccentricity": 0.06220703124999999,
            "inclination": 0.27142937830087593,
            "longitude_of_ascending_node": 2.558469443071026,
            "argument_of_perihelion": 5.551940034526618,
            "mean_anomaly": 3.8803892892730074
        },
        {
            "name": "TNO-638",
            "mass": 0,
            "semi_major_axis": 368.06640625,
            "eccentricity": 0.06230468749999998,
            "inclination": 0.27185548407528864,
            "longitude_of_ascending_node": 2.6933685333691355,
            "argument_of_perihelion": 4.404020535637199,
            "mean_anomaly": 4.896904609222561
        },
        {
            "name": "TNO-639",
            "mass": 0,
            "semi_major_axis": 368.408203125,
            "eccentricity": 0.062402343749999985,
            "inclination": 0.2722815898497013,
            "longitude_of_ascending_node": 4.701755186749148,
            "argument_of_perihelion": 3.0958398429306224,
            "mean_anomaly": 0.9904071519663517
        },
        {
            "name": "TNO-640",
            "mass": 0,
            "semi_major_axis": 368.75,
            "eccentricity": 0.062499999999999986,
            "inclination": 0.272707695624114,
            "longitude_of_ascending_node": 1.5654523061129786,
            "argument_of_perihelion": 3.813064762643585,
            "mean_anomaly": 4.868417778159202
        },
        {
            "name": "TNO-641",
            "mass": 0,
            "semi_major_axis": 369.091796875,
            "eccentricity": 0.06259765624999998,
            "inclination": 0.27313380139852667,
            "longitude_of_ascending_node": 3.7827478117967006,
            "argument_of_perihelion": 5.48534791384042,
            "mean_anomaly": 1.8652918125962914
        },
        {
            "name": "TNO-642",
            "mass": 0,
            "semi_major_axis": 369.43359375,
            "eccentricity": 0.06269531249999999,
            "inclination": 0.2735599071729393,
            "longitude_of_ascending_node": 2.42921090907831,
            "argument_of_perihelion": 6.249979917156431,
            "mean_anomaly": 5.758906969510179
        },
        {
            "name": "TNO-643",
            "mass": 0,
            "semi_major_axis": 369.775390625,
            "eccentricity": 0.06279296874999998,
            "inclination": 0.27398601294735203,
            "longitude_of_ascending_node": 3.452461111249136,
            "argument_of_perihelion": 5.986631846653885,
            "mean_anomaly": 1.4040730490010707
        },
        {
            "name": "TNO-644",
            "mass": 0,
            "semi_major_axis": 370.1171875,
            "eccentricity": 0.06289062499999999,
            "inclination": 0.2744121187217647,
            "longitude_of_ascending_node": 0.36399404705057303,
            "argument_of_perihelion": 0.644314278315691,
            "mean_anomaly": 5.23822351134489
        },
        {
            "name": "TNO-645",
            "mass": 0,
            "semi_major_axis": 370.458984375,
            "eccentricity": 0.06298828124999999,
            "inclination": 0.2748382244961774,
            "longitude_of_ascending_node": 5.494223111380877,
            "argument_of_perihelion": 4.361912815165211,
            "mean_anomaly": 2.9367517030653842
        },
        {
            "name": "TNO-646",
            "mass": 0,
            "semi_major_axis": 370.80078125,
            "eccentricity": 0.06308593749999998,
            "inclination": 0.27526433027059005,
            "longitude_of_ascending_node": 3.099566093502171,
            "argument_of_perihelion": 0.9643947137358145,
            "mean_anomaly": 3.371806336973261
        },
        {
            "name": "TNO-647",
            "mass": 0,
            "semi_major_axis": 371.142578125,
            "eccentricity": 0.06318359374999999,
            "inclination": 0.27569043604500276,
            "longitude_of_ascending_node": 6.086155074682417,
            "argument_of_perihelion": 4.5678599742627615,
            "mean_anomaly": 0.8881566865610109
        },
        {
            "name": "TNO-648",
            "mass": 0,
            "semi_major_axis": 371.484375,
            "eccentricity": 0.06328124999999998,
            "inclination": 0.2761165418194154,
            "longitude_of_ascending_node": 6.115344127599771,
            "argument_of_perihelion": 2.7104256428151094,
            "mean_anomaly": 5.297563237167835
        },
        {
            "name": "TNO-649",
            "mass": 0,
            "semi_major_axis": 371.826171875,
            "eccentricity": 0.06337890624999999,
            "inclination": 0.2765426475938281,
            "longitude_of_ascending_node": 4.807239578437505,
            "argument_of_perihelion": 1.207163142549437,
            "mean_anomaly": 5.774410937411485
        },
        {
            "name": "TNO-650",
            "mass": 0,
            "semi_major_axis": 372.16796875,
            "eccentricity": 0.06347656249999999,
            "inclination": 0.2769687533682408,
            "longitude_of_ascending_node": 2.388005181824793,
            "argument_of_perihelion": 4.663999035817849,
            "mean_anomaly": 1.8122108495019416
        },
        {
            "name": "TNO-651",
            "mass": 0,
            "semi_major_axis": 372.509765625,
            "eccentricity": 0.06357421874999998,
            "inclination": 0.27739485914265344,
            "longitude_of_ascending_node": 1.9920233110810914,
            "argument_of_perihelion": 0.5553903442668155,
            "mean_anomaly": 3.553361152001471
        },
        {
            "name": "TNO-652",
            "mass": 0,
            "semi_major_axis": 372.8515625,
            "eccentricity": 0.06367187499999999,
            "inclination": 0.27782096491706615,
            "longitude_of_ascending_node": 2.0044909009939,
            "argument_of_perihelion": 0.6615770206688358,
            "mean_anomaly": 1.2809671824096267
        },
        {
            "name": "TNO-653",
            "mass": 0,
            "semi_major_axis": 373.193359375,
            "eccentricity": 0.06376953124999998,
            "inclination": 0.2782470706914788,
            "longitude_of_ascending_node": 5.31793450241383,
            "argument_of_perihelion": 6.206910858174863,
            "mean_anomaly": 0.7735595829550914
        },
        {
            "name": "TNO-654",
            "mass": 0,
            "semi_major_axis": 373.53515625,
            "eccentricity": 0.06386718749999999,
            "inclination": 0.27867317646589146,
            "longitude_of_ascending_node": 6.098033018522246,
            "argument_of_perihelion": 1.2691060155975917,
            "mean_anomaly": 4.372691130999418
        },
        {
            "name": "TNO-655",
            "mass": 0,
            "semi_major_axis": 373.876953125,
            "eccentricity": 0.06396484374999999,
            "inclination": 0.27909928224030417,
            "longitude_of_ascending_node": 5.84932490167259,
            "argument_of_perihelion": 0.571943239949572,
            "mean_anomaly": 5.239416114380813
        },
        {
            "name": "TNO-656",
            "mass": 0,
            "semi_major_axis": 374.21875,
            "eccentricity": 0.06406249999999998,
            "inclination": 0.2795253880147168,
            "longitude_of_ascending_node": 1.7011493113483673,
            "argument_of_perihelion": 6.224876728703978,
            "mean_anomaly": 2.846181906195325
        }
    ]
}